******** Week 760 almanac for PRN-01 ********
ID:                         01
Health:                     000
Eccentricity:               0.2817153931E-002
Time of Applicability(s):  319488.0000
Orbital Inclination(rad):   0.9609934236
Rate of Right Ascen(r/s):  -0.7977475151E-008
SQRT(A)  (m 1/2):           5153.626465
Right Ascen at Week(rad):  -0.4430163480E+000
Argument of Perigee(rad):   0.339688361
Mean Anom(rad):             0.1082562375E+001
Af0(s):                     0.4768371582E-005
Af1(s/s):                   0.0000000000E+000
week:                        760

******** Week 760 almanac for PRN-02 ********
ID:                         02
Health:                     000
Eccentricity:               0.1335620880E-001
Time of Applicability(s):  319488.0000
Orbital Inclination(rad):   0.9394997162
Rate of Right Ascen(r/s):  -0.8217485148E-008
SQRT(A)  (m 1/2):           5153.512207
Right Ascen at Week(rad):  -0.4710920164E+000
Argument of Perigee(rad):  -2.460580085
Mean Anom(rad):             0.1714887906E+001
Af0(s):                     0.4844665527E-003
Af1(s/s):                   0.3637978807E-011
week:                        760

******** Week 760 almanac for PRN-03 ********
ID:                         03
Health:                     000
Eccentricity:               0.1679039001E-001
Time of Applicability(s):  319488.0000
Orbital Inclination(rad):   0.9372586661
Rate of Right Ascen(r/s):  -0.8286059433E-008
SQRT(A)  (m 1/2):           5153.713867
Right Ascen at Week(rad):  -0.1645279034E+001
Argument of Perigee(rad):   1.370725310
Mean Anom(rad):             0.1908617396E+001
Af0(s):                     0.3404617310E-003
Af1(s/s):                   0.3637978807E-011
week:                        760

******** Week 760 almanac for PRN-04 ********
ID:                         04
Health:                     000
Eccentricity:               0.1057720184E-001
Time of Applicability(s):  319488.0000
Orbital Inclination(rad):   0.9385349861
Rate of Right Ascen(r/s):  -0.8240343243E-008
SQRT(A)  (m 1/2):           5153.646973
Right Ascen at Week(rad):  -0.4550091866E+000
Argument of Perigee(rad):   1.083713235
Mean Anom(rad):            -0.1168221495E+001
Af0(s):                     0.6675720215E-005
Af1(s/s):                   0.0000000000E+000
week:                        760

******** Week 760 almanac for PRN-05 ********
ID:                         05
Health:                     000
Eccentricity:               0.3586769104E-002
Time of Applicability(s):  319488.0000
Orbital Inclination(rad):   0.9478407367
Rate of Right Ascen(r/s):  -0.7851755629E-008
SQRT(A)  (m 1/2):           5153.510254
Right Ascen at Week(rad):   0.5956927517E+000
Argument of Perigee(rad):   0.340523512
Mean Anom(rad):            -0.2280164695E+001
Af0(s):                    -0.3833770752E-003
Af1(s/s):                   0.3637978807E-011
week:                        760

******** Week 760 almanac for PRN-07 ********
ID:                         07
Health:                     000
Eccentricity:               0.7093906403E-002
Time of Applicability(s):  319488.0000
Orbital Inclination(rad):   0.9740082918
Rate of Right Ascen(r/s):  -0.7988904198E-008
SQRT(A)  (m 1/2):           5153.594727
Right Ascen at Week(rad):   0.2717520744E+001
Argument of Perigee(rad):  -2.839328406
Mean Anom(rad):             0.4635689192E+000
Af0(s):                     0.3261566162E-003
Af1(s/s):                   0.3637978807E-011
week:                        760

******** Week 760 almanac for PRN-08 ********
ID:                         08
Health:                     000
Eccentricity:               0.1354551315E-001
Time of Applicability(s):  319488.0000
Orbital Inclination(rad):   0.9972457039
Rate of Right Ascen(r/s):  -0.7703178011E-008
SQRT(A)  (m 1/2):           5153.446777
Right Ascen at Week(rad):   0.2815351717E+001
Argument of Perigee(rad):  -2.784758986
Mean Anom(rad):            -0.1077868678E+000
Af0(s):                     0.1239776611E-004
Af1(s/s):                   0.0000000000E+000
week:                        760

******** Week 760 almanac for PRN-09 ********
ID:                         09
Health:                     000
Eccentricity:               0.1701498032E-001
Time of Applicability(s):  319488.0000
Orbital Inclination(rad):   0.9825470520
Rate of Right Ascen(r/s):  -0.7908900866E-008
SQRT(A)  (m 1/2):           5153.640137
Right Ascen at Week(rad):   0.2696594040E+001
Argument of Perigee(rad):   1.777997958
Mean Anom(rad):             0.1566104877E+001
Af0(s):                     0.3137588501E-003
Af1(s/s):                   0.3637978807E-011
week:                        760

******** Week 760 almanac for PRN-10 ********
ID:                         10
Health:                     000
Eccentricity:               0.1347875595E-001
Time of Applicability(s):  319488.0000
Orbital Inclination(rad):   0.9426335910
Rate of Right Ascen(r/s):  -0.7897471819E-008
SQRT(A)  (m 1/2):           5153.668457
Right Ascen at Week(rad):   0.6133470131E+000
Argument of Perigee(rad):   0.859172303
Mean Anom(rad):            -0.1951105592E+001
Af0(s):                    -0.1182556152E-003
Af1(s/s):                   0.0000000000E+000
week:                        760

******** Week 760 almanac for PRN-11 ********
ID:                         11
Health:                     000
Eccentricity:               0.1482105255E-001
Time of Applicability(s):  319488.0000
Orbital Inclination(rad):   0.8902145913
Rate of Right Ascen(r/s):  -0.8823224666E-008
SQRT(A)  (m 1/2):           5153.621094
Right Ascen at Week(rad):  -0.7618502850E+000
Argument of Perigee(rad):   1.270421092
Mean Anom(rad):             0.6630482153E+000
Af0(s):                    -0.4730224609E-003
Af1(s/s):                  -0.3637978807E-011
week:                        760

******** Week 760 almanac for PRN-12 ********
ID:                         12
Health:                     000
Eccentricity:               0.4983425140E-002
Time of Applicability(s):  319488.0000
Orbital Inclination(rad):   0.9871310181
Rate of Right Ascen(r/s):  -0.7497455156E-008
SQRT(A)  (m 1/2):           5153.621094
Right Ascen at Week(rad):  -0.2504205660E+001
Argument of Perigee(rad):   0.364667605
Mean Anom(rad):             0.8994123341E-001
Af0(s):                     0.1935958862E-003
Af1(s/s):                   0.3637978807E-011
week:                        760

******** Week 760 almanac for PRN-13 ********
ID:                         13
Health:                     000
Eccentricity:               0.5309581757E-002
Time of Applicability(s):  319488.0000
Orbital Inclination(rad):   0.9779151491
Rate of Right Ascen(r/s):  -0.8057478483E-008
SQRT(A)  (m 1/2):           5153.565918
Right Ascen at Week(rad):   0.1752426618E+001
Argument of Perigee(rad):   2.204131529
Mean Anom(rad):             0.2826823990E+001
Af0(s):                     0.1907348633E-004
Af1(s/s):                  -0.3637978807E-011
week:                        760

******** Week 760 almanac for PRN-14 ********
ID:                         14
Health:                     000
Eccentricity:               0.7289409637E-002
Time of Applicability(s):  319488.0000
Orbital Inclination(rad):   0.9705029060
Rate of Right Ascen(r/s):  -0.8137481816E-008
SQRT(A)  (m 1/2):           5153.581055
Right Ascen at Week(rad):   0.1721038435E+001
Argument of Perigee(rad):  -1.993746214
Mean Anom(rad):            -0.3139983771E+001
Af0(s):                     0.1888275146E-003
Af1(s/s):                  -0.3637978807E-011
week:                        760

******** Week 760 almanac for PRN-15 ********
ID:                         15
Health:                     000
Eccentricity:               0.6244182587E-002
Time of Applicability(s):  319488.0000
Orbital Inclination(rad):   0.9371148554
Rate of Right Ascen(r/s):  -0.8423208003E-008
SQRT(A)  (m 1/2):           5153.602051
Right Ascen at Week(rad):   0.1611240464E+001
Argument of Perigee(rad):   0.266795062
Mean Anom(rad):             0.2555440468E+001
Af0(s):                    -0.1688003540E-003
Af1(s/s):                  -0.3637978807E-011
week:                        760

******** Week 760 almanac for PRN-16 ********
ID:                         16
Health:                     000
Eccentricity:               0.7649421692E-002
Time of Applicability(s):  319488.0000
Orbital Inclination(rad):   0.9877422135
Rate of Right Ascen(r/s):  -0.7474597061E-008
SQRT(A)  (m 1/2):           5153.518555
Right Ascen at Week(rad):  -0.2485687036E+001
Argument of Perigee(rad):   0.160249310
Mean Anom(rad):            -0.2101851038E+001
Af0(s):                    -0.2269744873E-003
Af1(s/s):                   0.0000000000E+000
week:                        760

******** Week 760 almanac for PRN-17 ********
ID:                         17
Health:                     000
Eccentricity:               0.9273052216E-002
Time of Applicability(s):  319488.0000
Orbital Inclination(rad):   0.9676506605
Rate of Right Ascen(r/s):  -0.8034620388E-008
SQRT(A)  (m 1/2):           5153.504395
Right Ascen at Week(rad):  -0.1452658085E+001
Argument of Perigee(rad):  -2.112909482
Mean Anom(rad):            -0.3078509941E+001
Af0(s):                    -0.7724761963E-004
Af1(s/s):                  -0.3637978807E-011
week:                        760

******** Week 760 almanac for PRN-18 ********
ID:                         18
Health:                     000
Eccentricity:               0.1491022110E-001
Time of Applicability(s):  319488.0000
Orbital Inclination(rad):   0.9264129426
Rate of Right Ascen(r/s):  -0.8046049436E-008
SQRT(A)  (m 1/2):           5153.627441
Right Ascen at Week(rad):   0.5918787722E+000
Argument of Perigee(rad):  -2.053537010
Mean Anom(rad):            -0.1433329777E+001
Af0(s):                     0.3080368042E-003
Af1(s/s):                   0.3637978807E-011
week:                        760

